OBJECT_NAME,OBJECT_ID,EPOCH,MEAN_MOTION,ECCENTRICITY,INCLINATION,RA_OF_ASC_NODE,ARG_OF_PERICENTER,MEAN_ANOMALY,EPHEMERIS_TYPE,CLASSIFICATION_TYPE,NORAD_CAT_ID,ELEMENT_SET_NO,REV_AT_EPOCH,BSTAR,MEAN_MOTION_DOT,MEAN_MOTION_DDOT
NVS-01 (IRNSS-1J),2023-076A,2026-06-08T12:17:12.200928,1.00269606,.0002993,2.1876,244.7547,40.3804,285.6543,0,U,56759,999,1102,0,-.319E-5,0
NUSANTARA TIGA (SATRIA),2023-086A,2026-06-07T14:07:16.415616,1.00269379,.00035685,0.0374,344.8283,0.3771,268.6018,0,U,57045,999,966,0,-.22E-5,0
H2SAT (HEINRICH HERTZ),2023-093A,2026-06-08T08:15:08.106048,1.00272219,.0001581,0.0517,114.6735,20.2032,246.3307,0,U,57213,999,1082,0,.18E-6,0
SYRACUSE 4B,2023-093B,2026-06-07T16:49:08.071968,1.00270890,.00001945,0.0162,349.1003,207.3827,305.4865,0,U,57214,999,687,0,0,0
JUPITER 3 (ECHOSTAR 24),2023-108A,2026-06-06T13:21:04.385664,1.00270321,.00011738,0.0197,338.3633,95.9959,285.6537,0,U,57479,999,1054,0,0,0
GALAXY 37 (G-37),2023-112A,2026-06-08T11:04:00.990048,1.00271714,.0001969,0.0184,339.1105,98.9675,217.7825,0,U,57493,999,1045,0,.64E-6,0
LUDI TANCE-4 01A,2023-120A,2026-06-07T15:38:35.206368,1.00271349,.00008258,15.1081,194.2074,74.7479,311.4666,0,U,57624,999,1045,0,-.162E-5,0
ZHONGXING-6E,2023-172A,2026-06-08T08:57:31.764384,1.00269400,.0002368,0.0168,19.6277,62.7022,64.3546,0,U,58253,999,957,0,-.346E-5,0
YAOGAN-41,2023-197A,2026-06-08T12:15:27.370080,1.00275387,.0014105,3.1453,312.9914,192.8553,58.0867,0,U,58582,999,923,0,-.348E-5,0
OVZON-3,2024-003A,2026-06-08T11:57:20.858112,1.00272746,.0000154,0.0036,284.5535,225.7502,345.6288,0,U,58698,999,736,0,.67E-6,0
INSAT-3DS,2024-033A,2026-06-08T12:03:42.746976,1.00273110,.0001259,0.0147,153.9081,278.5964,87.3976,0,U,58990,999,4698,0,-.14E-5,0
MERAH PUTIH 2,2024-035A,2026-06-08T12:12:34.398144,1.00268174,.0001099,0.0169,328.1304,108.8851,115.9821,0,U,58995,999,850,0,0,0
TJS-11,2024-037A,2026-06-07T15:04:52.671360,1.00174849,.0005501,4.2123,326.9451,181.0800,86.5687,0,U,59020,999,848,0,-.345E-5,0
HULIANWAN GAOGUI-01 (HG-01),2024-040A,2026-06-08T11:49:44.088096,1.00271270,.0003222,0.0682,327.3872,73.2807,67.2754,0,U,59069,999,724,0,.172E-5,0
EUTELSAT 36D,2024-059A,2026-06-08T11:50:21.527808,1.00272446,.0000472,0.0167,358.8162,195.9560,275.5770,0,U,59346,999,806,0,0,0
PAKSAT-MM1,2024-104A,2026-06-03T15:29:55.900032,1.00274914,.00020461,0.0154,42.0049,27.2826,93.4750,0,U,59915,999,739,0,.165E-5,0
ASTRA 1P (SES-24),2024-115A,2026-06-07T16:56:29.866272,1.00269256,.00008383,0.0623,9.5951,1.1553,158.6868,0,U,60086,999,710,0,.134E-5,0
GOES 19,2024-119A,2026-06-08T07:53:32.676288,1.00272633,.0000541,0.0337,147.9866,6.1333,145.7999,0,U,60133,999,687,0,-.233E-5,0
ZHONGXING-3A,2024-122A,2026-06-06T20:22:21.679392,1.00273610,.000141,0.0425,119.1641,341.0815,202.1910,0,U,60179,999,720,0,-.3E-5,0
TURKSAT 6A,2024-127A,2026-06-08T11:52:13.850400,1.00271555,.000165,0.0151,178.3212,315.2503,343.3657,0,U,60233,999,693,0,0,0
HULIANWAN GAOGUI-02 (HG-02),2024-135A,2026-06-08T14:35:38.467104,1.00268862,.0007531,0.0425,351.7677,16.0093,261.3185,0,U,60327,999,741,0,-.157E-5,0
ZHONGXING-4A,2024-151A,2026-06-08T10:34:26.569056,1.00270046,.0000504,1.3379,270.9393,206.2499,56.4799,0,U,60606,999,666,0,-.346E-5,0
HULIANWAN GAOGUI-03 (HG-03),2024-181A,2026-06-08T09:46:48.349056,1.00266148,.0001288,0.0451,354.8447,106.7973,224.6879,0,U,61503,999,673,0,-.225E-5,0
DSN-3 (KIRAMEKI-3),2024-198A,2026-06-08T11:55:38.453376,1.00270584,.000088,0.0181,286.6864,227.2296,65.9536,0,U,61733,999,583,0,-.234E-5,0
KOREASAT 6A,2024-206A,2026-06-08T08:48:03.521088,1.00272571,.0000957,0.0395,135.7713,280.7845,88.2254,0,U,61910,999,575,0,-.346E-5,0
OPTUS-X (ADS-01),2024-212A,2026-06-08T11:47:38.731200,1.00271112,.0001721,0.0178,317.4859,159.1929,113.5247,0,U,62006,999,567,0,-.127E-5,0
GSAT-N2 (GSAT-20),2024-214A,2026-06-08T11:59:43.131264,1.00269084,.000206,0.0036,227.3568,204.4633,73.0219,0,U,62028,999,581,0,-.4E-7,0
SXM-9,2024-234A,2026-06-07T02:45:21.908160,1.00271393,.0004717,0.0153,323.8392,351.9074,255.9673,0,U,62259,999,547,0,-.191E-5,0
TJS-12,2024-246A,2026-06-08T10:39:28.290816,1.00272446,.0002214,0.6905,298.2653,86.7181,178.2810,0,U,62374,999,547,0,-.215E-5,0
NUVIEW ALPHA,2024-252B,2026-06-08T09:33:53.085312,1.00272072,.0000935,0.0564,33.8065,26.1204,257.2591,0,U,62455,999,373,0,-.2E-5,0
AGILA,2024-252C,2026-06-08T10:40:58.145952,1.00271761,.0000887,0.0558,132.0062,327.8601,109.3634,0,U,62456,999,507,0,-.166E-5,0
