NVS-01 (IRNSS-1J)       
1 56759U 23076A   26159.51194677 -.00000319  00000+0  00000+0 0  9995
2 56759   2.1876 244.7547 0002993  40.3804 285.6543  1.00269606 11020
NUSANTARA TIGA (SATRIA) 
1 57045U 23086A   26158.58838444 -.00000220  00000+0  00000+0 0  9999
2 57045   0.0374 344.8283 0003568   0.3771 268.6018  1.00269379  9668
H2SAT (HEINRICH HERTZ)  
1 57213U 23093A   26159.34384382  .00000018  00000+0  00000+0 0  9990
2 57213   0.0517 114.6735 0001581  20.2032 246.3307  1.00272219 10824
SYRACUSE 4B             
1 57214U 23093B   26158.70078787  .00000000  00000+0  00000+0 0  9990
2 57214   0.0162 349.1003 0000194 207.3827 305.4865  1.00270890  6872
JUPITER 3 (ECHOSTAR 24) 
1 57479U 23108A   26157.55630076  .00000000  00000+0  00000+0 0  9997
2 57479   0.0197 338.3633 0001173  95.9959 285.6537  1.00270321 10540
GALAXY 37 (G-37)        
1 57493U 23112A   26159.46112257  .00000064  00000+0  00000+0 0  9996
2 57493   0.0184 339.1105 0001969  98.9675 217.7825  1.00271714 10459
LUDI TANCE-4 01A        
1 57624U 23120A   26158.65179637 -.00000162  00000+0  00000+0 0  9996
2 57624  15.1081 194.2074 0000825  74.7479 311.4666  1.00271349 10456
ZHONGXING-6E            
1 58253U 23172A   26159.37328431 -.00000346  00000+0  00000+0 0  9994
2 58253   0.0168  19.6277 0002368  62.7022  64.3546  1.00269400  9571
YAOGAN-41               
1 58582U 23197A   26159.51073345 -.00000348  00000+0  00000+0 0  9995
2 58582   3.1453 312.9914 0014105 192.8553  58.0867  1.00275387  9230
OVZON-3                 
1 58698U 24003A   26159.49815808  .00000067  00000+0  00000+0 0  9992
2 58698   0.0036 284.5535 0000154 225.7502 345.6288  1.00272746  7363
INSAT-3DS               
1 58990U 24033A   26159.50257809 -.00000140  00000+0  00000+0 0  9996
2 58990   0.0147 153.9081 0001259 278.5964  87.3976  1.00273110 46982
MERAH PUTIH 2           
1 58995U 24035A   26159.50873146  .00000000  00000+0  00000+0 0  9995
2 58995   0.0169 328.1304 0001099 108.8851 115.9821  1.00268174  8504
TJS-11                  
1 59020U 24037A   26158.62838740 -.00000345  00000+0  00000+0 0  9993
2 59020   4.2123 326.9451 0005501 181.0800  86.5687  1.00174849  8483
HULIANWAN GAOGUI-01 (H*)
1 59069U 24040A   26159.49287139  .00000172  00000+0  00000+0 0  9993
2 59069   0.0682 327.3872 0003222  73.2807  67.2754  1.00271270  7249
EUTELSAT 36D            
1 59346U 24059A   26159.49330472  .00000000  00000+0  00000+0 0  9990
2 59346   0.0167 358.8162 0000472 195.9560 275.5770  1.00272446  8067
PAKSAT-MM1              
1 59915U 24104A   26154.64578588  .00000165  00000+0  00000+0 0  9999
2 59915   0.0154  42.0049 0002046  27.2826  93.4750  1.00274914  7394
ASTRA 1P (SES-24)       
1 60086U 24115A   26158.70590123  .00000134  00000+0  00000+0 0  9998
2 60086   0.0623   9.5951 0000838   1.1553 158.6868  1.00269256  7107
GOES 19                 
1 60133U 24119A   26159.32885042 -.00000233  00000+0  00000+0 0  9992
2 60133   0.0337 147.9866 0000541   6.1333 145.7999  1.00272633  6874
ZHONGXING-3A            
1 60179U 24122A   26157.84886203 -.00000300  00000+0  00000+0 0  9996
2 60179   0.0425 119.1641 0001410 341.0815 202.1910  1.00273610  7201
TURKSAT 6A              
1 60233U 24127A   26159.49460475  .00000000  00000+0  00000+0 0  9990
2 60233   0.0151 178.3212 0001650 315.2503 343.3657  1.00271555  6933
HULIANWAN GAOGUI-02 (H*)
1 60327U 24135A   26159.60808411 -.00000157  00000+0  00000+0 0  9996
2 60327   0.0425 351.7677 0007531  16.0093 261.3185  1.00268862  7413
ZHONGXING-4A            
1 60606U 24151A   26159.44058529 -.00000346  00000+0  00000+0 0  9993
2 60606   1.3379 270.9393 0000504 206.2499  56.4799  1.00270046  6665
HULIANWAN GAOGUI-03 (H*)
1 61503U 24181A   26159.40750404 -.00000225  00000+0  00000+0 0  9996
2 61503   0.0451 354.8447 0001288 106.7973 224.6879  1.00266148  6736
DSN-3 (KIRAMEKI-3)      
1 61733U 24198A   26159.49697284 -.00000234  00000+0  00000+0 0  9994
2 61733   0.0181 286.6864 0000880 227.2296  65.9536  1.00270584  5835
KOREASAT 6A             
1 61910U 24206A   26159.36670742 -.00000346  00000+0  00000+0 0  9991
2 61910   0.0395 135.7713 0000957 280.7845  88.2254  1.00272571  5759
OPTUS-X (ADS-01)        
1 62006U 24212A   26159.49142050 -.00000127  00000+0  00000+0 0  9992
2 62006   0.0178 317.4859 0001721 159.1929 113.5247  1.00271112  5672
GSAT-N2 (GSAT-20)       
1 62028U 24214A   26159.49980476 -.00000004  00000+0  00000+0 0  9994
2 62028   0.0036 227.3568 0002060 204.4633  73.0219  1.00269084  5818
SXM-9                   
1 62259U 24234A   26158.11483690 -.00000191  00000+0  00000+0 0  9993
2 62259   0.0153 323.8392 0004717 351.9074 255.9673  1.00271393  5472
TJS-12                  
1 62374U 24246A   26159.44407744 -.00000215  00000+0  00000+0 0  9994
2 62374   0.6905 298.2653 0002214  86.7181 178.2810  1.00272446  5478
NUVIEW ALPHA            
1 62455U 24252B   26159.39853108 -.00000200  00000+0  00000+0 0  9998
2 62455   0.0564  33.8065 0000935  26.1204 257.2591  1.00272072  3731
AGILA                   
1 62456U 24252C   26159.44511743 -.00000166  00000+0  00000+0 0  9992
2 62456   0.0558 132.0062 0000887 327.8601 109.3634  1.00271761  5070
